CCSDS_OEM_VERS = 2.0
CREATION_DATE  = 2026-03-11T22:10:43.204
ORIGINATOR     = NASA/JSC/FOD/TOPO

META_START
OBJECT_NAME          = ISS
OBJECT_ID            = 1998-067-A
CENTER_NAME          = Earth
REF_FRAME            = EME2000
TIME_SYSTEM          = UTC
START_TIME           = 2026-03-11T12:00:00.000
USEABLE_START_TIME   = 2026-03-11T12:00:00.000
USEABLE_STOP_TIME    = 2026-03-26T12:00:00.000
STOP_TIME            = 2026-03-26T12:00:00.000
META_STOP

COMMENT Source: This file was produced by the TOPO office within FOD at JSC.
COMMENT Units are in kg and m^2
COMMENT MASS=467762.00
COMMENT DRAG_AREA=1205.00
COMMENT DRAG_COEFF=2.07
COMMENT SOLAR_RAD_AREA=0.00
COMMENT SOLAR_RAD_COEFF=0.00
COMMENT Orbits start at the ascending node epoch
COMMENT ISS first asc. node: EPOCH = 2026-03-11T12:19:56.607 $ ORBIT = 3661 $ LAN(DEG) = 69.17528
COMMENT ISS last asc. node : EPOCH = 2026-03-26T11:40:44.210 $ ORBIT = 3893 $ LAN(DEG) = -9.79580
COMMENT Begin sequence of events
COMMENT TRAJECTORY EVENT SUMMARY:
COMMENT 
COMMENT |       EVENT        |       TIG        | ORB |   DV    |   HA    |   HP    |
COMMENT |                    |       GMT        |     |   M/S   |   KM    |   KM    |
COMMENT |                    |                  |     |  (F/S)  |  (NM)   |  (NM)   |
COMMENT =============================================================================
COMMENT  NG-23 Release         071:11:05:00.000             0.0     428.4     412.9
COMMENT                                                    (0.0)   (231.3)   (222.9)
COMMENT 
COMMENT  GMT 072 Reboost       072:16:58:00.000             0.6     427.7     413.3
COMMENT                                                    (2.0)   (231.0)   (223.2)
COMMENT 
COMMENT  92P Undock            075:13:24:00.000             0.0     427.4     415.2
COMMENT                                                    (0.0)   (230.8)   (224.2)
COMMENT 
COMMENT  94P_Launch            081:11:59:49.000             0.0     425.2     416.4
COMMENT                                                    (0.0)   (229.6)   (224.8)
COMMENT 
COMMENT  94P_Docking           083:13:35:23.000             0.0     424.4     416.8
COMMENT                                                    (0.0)   (229.2)   (225.0)
COMMENT 
COMMENT =============================================================================
COMMENT End sequence of events
2026-03-18T05:25:00.000 5962.486436117360 3274.198581416110 -173.232612299148 -2.15287483569293 4.22903297170302 6.00614916729266
2026-03-18T05:29:00.000 5235.777563660940 4158.096743387240 1257.019900155080 -3.86624321267435 3.09186016636877 5.83981061760985
2026-03-18T05:33:00.000 4129.168405741470 4740.284948905940 2595.794766725860 -5.29932352665233 1.73015897891919 5.24849727984671
2026-03-18T05:37:00.000 2722.953388823380 4978.522593218200 3745.680904269640 -6.34772386074846 0.24312410714890 4.27540229934892
2026-03-18T05:41:00.000 1119.204951464900 4855.601129601830 4623.069388078840 -6.93545328695038 -1.26117581045156 2.99157388834568
2026-03-18T05:45:00.000 -565.721871949868 4380.508862223010 5164.202217093390 -7.02012026705037 -2.67382198076194 1.49033656539371
2026-03-18T05:49:00.000 -2209.616005278160 3587.703375834480 5329.719938237720 -6.59555655026909 -3.89272393179797 -0.11952708894797
2026-03-18T05:53:00.000 -3693.187525172060 2534.608818196980 5107.463844590970 -5.69212508170575 -4.82970773604268 -1.72147571461671
2026-03-18T05:57:00.000 -4908.622020057150 1297.513741504000 4513.358667664950 -4.37453343376497 -5.41665049952607 -3.19935877850895
2026-03-18T06:01:00.000 -5767.357058616910 -33.848342753162 3590.363684290340 -2.73765436120248 -5.61035681685948 -4.44539464893177
2026-03-18T06:05:00.000 -6206.605379054230 -1362.731299138380 2405.495087472710 -0.90016670056500 -5.39599544018363 -5.36814201567444
2026-03-18T06:09:00.000 -6194.105739433310 -2592.412781620100 1045.046848199080 1.00377970344865 -4.78869964377186 -5.89946981017751
2026-03-18T06:13:00.000 -5730.655682465560 -3633.351172175390 -391.707562475367 2.83459256427697 -3.83283576600171 -6.00009599098446
2026-03-18T06:17:00.000 -4850.138374673270 -4409.865258361430 -1799.887326991130 4.45797856134248 -2.59880069777081 -5.66292026430328
2026-03-18T06:21:00.000 -3616.961774943720 -4865.754428107160 -3076.849069734690 5.75550092624642 -1.17744753549142 -4.91351460384523
2026-03-18T06:25:00.000 -2121.143751657570 -4968.367899169770 -4129.799965290630 6.63350128469507 0.32713633463545 -3.80778510542656
2026-03-18T06:29:00.000 -471.525687710126 -4710.819744939410 -4882.544545548920 7.02962682164799 1.80567998542077 -2.42718066706247
2026-03-18T06:33:00.000 1212.254287075630 -4112.272799285610 -5280.872508545920 6.91668951597444 3.15167753895381 -0.87228685856112
2026-03-18T06:37:00.000 2808.399698841130 -3216.368853990580 -5296.270012657990 6.30386325658101 4.26879889387984 0.74462492565754
2026-03-18T06:41:00.000 4201.579840342790 -2088.004764088100 -4927.801544749260 5.23550792091140 5.07720656244017 2.30729977661658
2026-03-18T06:45:00.000 5291.050482805820 -808.721474395617 -4202.131520386620 3.78815108085911 5.51883308707998 3.70329547109360
2026-03-18T06:49:00.000 5997.812845626770 529.038079686262 -3171.678694817920 2.06548733411276 5.56145425569957 4.83167960441968
2026-03-18T06:53:00.000 6270.350497196240 1828.477257396780 -1910.980425105710 0.19154160366671 5.20131488176514 5.61021515282217
2026-03-18T06:57:00.000 6088.497248939910 2995.405415061760 -511.423929917064 -1.69803332133905 4.46380606901098 5.98163035569920
2026-03-18T07:01:00.000 5465.071289307290 3945.094268160440 925.318385604601 -3.46567853989142 3.40199233877564 5.91808689708787
2026-03-18T07:05:00.000 4445.104167004230 4608.542060444090 2294.716629393650 -4.98228707343966 2.09304263167517 5.42384761993545
2026-03-18T07:09:00.000 3102.575222989160 4937.581867945490 3497.118872485810 -6.13727548081621 0.63229468655315 4.53499401878426
2026-03-18T07:13:00.000 1534.940265168190 4908.390114490320 4445.072516273900 -6.84676042202265 -0.87401568896458 3.31643090006151
2026-03-18T07:17:00.000 -144.034106342011 4523.161493639580 5069.681534894290 -7.05950302438919 -2.31665474119515 1.85688777759835
2026-03-18T07:21:00.000 -1812.559689469460 3809.865188605510 5325.540384219390 -6.76020589609464 -3.59133826877108 0.26218708802653
2026-03-18T07:25:00.000 -3349.581868749520 2820.174891790720 5193.947421582180 -5.97020507576723 -4.60593993762430 -1.35225381997179
2026-03-18T07:29:00.000 -4643.442852418670 1625.778261834510 4684.261588360700 -4.74606805941668 -5.28679138126998 -2.86938286933391
2026-03-18T07:33:00.000 -5599.935998560800 313.278757114489 3833.300970941980 -3.17581522603811 -5.58401615235446 -4.17877628601915
2026-03-18T07:37:00.000 -6149.189769014960 -1021.991192273980 2702.801914943720 -1.37310287252301 -5.47526014579361 -5.18449053574668
2026-03-18T07:41:00.000 -6250.919260795750 -2282.874921452260 1375.048070625080 0.53066320417230 -4.96786340385396 -5.81235427412549
2026-03-18T07:45:00.000 -5897.553894792450 -3377.556624940840 -53.098249039710 2.39598532659489 -4.09876560474348 -6.01591217301285
2026-03-18T07:49:00.000 -5114.907056230630 -4226.401234095620 -1477.374885227830 4.08600017068078 -2.93189242539907 -5.78038888796345
2026-03-18T07:53:00.000 -3960.241401605420 -4767.876017007730 -2793.914222082590 5.47718196690598 -1.55317250215649 -5.12378675034279
2026-03-18T07:57:00.000 -2517.910631488170 -4963.052400657560 -3906.966568063430 6.46874578054984 -0.06379433914397 -4.09525909111456
2026-03-18T08:01:00.000 -892.960212154733 -4798.322229769670 -4735.909559766590 6.99001489820408 1.42780649929112 -2.77081048529309
2026-03-18T08:05:00.000 796.679626575771 -4286.156365262240 -5220.979569478280 7.00478847054456 2.81404424173313 -1.24711565903304
2026-03-18T08:09:00.000 2428.726294950990 -3463.997913785480 -5327.387225983980 6.51311767140637 3.99557309016748 0.36560859771527
2026-03-18T08:13:00.000 3885.241771648890 -2391.466943220900 -5047.653362559230 5.55087454466529 4.88796609053779 1.95132591653354
2026-03-18T08:17:00.000 5060.941047416590 -1146.089321170900 -4402.057207225380 4.18703052131924 5.42725123400612 3.39603648488054
2026-03-18T08:21:00.000 5870.639330236600 182.157434925603 -3437.227784830320 2.51922296534186 5.57427273199560 4.59542081702738
2026-03-18T08:25:00.000 6255.405368639130 1497.200105685390 -2222.924883958090 0.66735808920395 5.31775258989569 5.46222279653934
2026-03-18T08:29:00.000 6186.954154456160 2703.748059571180 -847.138993264333 -1.23457655158642 4.67555454070361 5.93276893417890
2026-03-18T08:33:00.000 5669.882951115690 3714.238285670060 590.224719701724 -3.04828554272513 3.69384463826180 5.97213211433171
2026-03-18T08:37:00.000 4741.462042608800 4455.271235393720 1984.635133739700 -4.64147250873371 2.44378155371239 5.57696465370819
2026-03-18T08:41:00.000 3468.986359360300 4873.032803393740 3234.623722321620 -5.89787160472929 1.01639592871126 4.77599902305476
2026-03-18T08:45:00.000 1944.815917060910 4937.254256225610 4249.265189178990 -6.72617207504696 -0.48441743743358 3.62775671017425
2026-03-18T08:49:00.000 279.561380823550 4643.353997503620 4954.805223272310 -7.06644433538643 -1.94980585169419 2.21587920875438
2026-03-18T08:53:00.000 -1405.973332606890 4012.690526981110 5299.966587745140 -6.89415364327213 -3.27375561248796 0.64287362544905
2026-03-18T08:57:00.000 -2989.517441156770 3090.965764381770 5259.596479888380 -6.22162776064413 -4.36059788738875 -0.97737176912002
2026-03-18T09:01:00.000 -4356.095037620300 1944.930912722610 4836.446087091880 -5.09695603910100 -5.13159364175598 -2.52754244765603
2026-03-18T09:05:00.000 -5406.272406935330 657.649824040512 4061.033847760410 -3.60090163164461 -5.53037670716348 -3.89491970721433
2026-03-18T09:09:00.000 -6063.411536828710 -677.422566593288 2989.562993857050 -1.84156647287131 -5.52729935757596 -4.97948998288115
